[{"OBJECT_NAME":"FOX-1A (AO-85)","OBJECT_ID":"2015-058D","EPOCH":"2026-03-09T22:16:13.069920","MEAN_MOTION":14.90358802,"ECCENTRICITY":0.01288837,"INCLINATION":64.7749,"RA_OF_ASC_NODE":227.3018,"ARG_OF_PERICENTER":95.808,"MEAN_ANOMALY":265.7742,"EPHEMERIS_TYPE":0,"CLASSIFICATION_TYPE":"U","NORAD_CAT_ID":40967,"ELEMENT_SET_NO":999,"REV_AT_EPOCH":9877,"BSTAR":0.00043144585,"MEAN_MOTION_DOT":4.759e-5,"MEAN_MOTION_DDOT":0},{"OBJECT_NAME":"STARLINK-34457","OBJECT_ID":"2025-126AA","EPOCH":"2026-03-09T22:04:11.751744","MEAN_MOTION":14.98334339,"ECCENTRICITY":0.00026202,"INCLINATION":70.0031,"RA_OF_ASC_NODE":33.9814,"ARG_OF_PERICENTER":276.2497,"MEAN_ANOMALY":83.8364,"EPHEMERIS_TYPE":0,"CLASSIFICATION_TYPE":"U","NORAD_CAT_ID":64368,"ELEMENT_SET_NO":999,"REV_AT_EPOCH":4071,"BSTAR":0.00046824394,"MEAN_MOTION_DOT":5.499e-5,"MEAN_MOTION_DDOT":0}]
